GLOBALSTAR M057         
1 25943U 99058A   25293.13464322 -.00000073  00000+0  18463-3 0  9995
2 25943  52.0008 353.6024 0002183 264.5909  95.4691 12.24827575182246
GLOBALSTAR M059         
1 25944U 99058B   25293.10837196 -.00000138  00000+0 -64654-3 0  9992
2 25944  52.0005 229.2184 0000493  68.8449 304.7738 11.99986892589041
GLOBALSTAR M056         
1 25945U 99058C   25293.10806747 -.00000078  00000+0  10564-3 0  9994
2 25945  51.9953 227.9762 0001507  61.1462 312.5199 12.04779211177680
GLOBALSTAR M031         
1 25946U 99058D   25293.21013527 -.00000134  00000+0 -44590-3 0  9993
2 25946  51.9939 112.5372 0002343  82.8676  88.9915 12.16041664179754
GLOBALSTAR M039         
1 25961U 99062A   25293.19012003 -.00000085  00000+0  10467-3 0  9990
2 25961  51.9832 247.9783 0002150 272.3001  87.7619 12.62333830196001
GLOBALSTAR M034         
1 25962U 99062B   25293.12028262 -.00000082  00000+0 -14246-4 0  9996
2 25962  51.9894  46.6289 0013451 276.5622 140.6362 11.79449532153131
GLOBALSTAR M029         
1 25963U 99062C   25293.15110411 -.00000034  00000+0  64355-3 0  9999
2 25963  51.9778 117.0305 0002775  26.9388  94.6187 11.99902684184128
GLOBALSTAR M061         
1 25964U 99062D   25293.16499508 -.00000105  00000+0 -40765-3 0  9997
2 25964  51.9786 232.2098 0005362 196.9441 267.9619 11.76777268135898
